{
  "links" : {
    "next" : "https://api.nasa.gov/neo/rest/v1/feed?start_date=1997-03-16&end_date=1997-03-16&detailed=true&api_key=t0TVs3DtDT2H8Oy2Zy8m2eVrNsAVKAexjcZXUckd",
    "prev" : "https://api.nasa.gov/neo/rest/v1/feed?start_date=1997-03-14&end_date=1997-03-14&detailed=true&api_key=t0TVs3DtDT2H8Oy2Zy8m2eVrNsAVKAexjcZXUckd",
    "self" : "https://api.nasa.gov/neo/rest/v1/feed?start_date=1997-03-15&end_date=1997-03-15&detailed=true&api_key=t0TVs3DtDT2H8Oy2Zy8m2eVrNsAVKAexjcZXUckd"
  },
  "element_count" : 3,
  "near_earth_objects" : {
    "1997-03-15" : [ {
      "links" : {
        "self" : "https://api.nasa.gov/neo/rest/v1/neo/3678562?api_key=t0TVs3DtDT2H8Oy2Zy8m2eVrNsAVKAexjcZXUckd"
      },
      "neo_reference_id" : "3678562",
      "name" : "(2014 OE338)",
      "nasa_jpl_url" : "http://ssd.jpl.nasa.gov/sbdb.cgi?sstr=3678562",
      "absolute_magnitude_h" : 21.0,
      "estimated_diameter" : {
        "kilometers" : {
          "estimated_diameter_min" : 0.1677084622,
          "estimated_diameter_max" : 0.3750075218
        },
        "meters" : {
          "estimated_diameter_min" : 167.7084621628,
          "estimated_diameter_max" : 375.0075217981
        },
        "miles" : {
          "estimated_diameter_min" : 0.1042091748,
          "estimated_diameter_max" : 0.2330187988
        },
        "feet" : {
          "estimated_diameter_min" : 550.2246310023,
          "estimated_diameter_max" : 1230.3396778159
        }
      },
      "is_potentially_hazardous_asteroid" : false,
      "close_approach_data" : [ {
        "close_approach_date" : "1997-03-15",
        "epoch_date_close_approach" : 858412800000,
        "relative_velocity" : {
          "kilometers_per_second" : "19.9605417935",
          "kilometers_per_hour" : "71857.9504565327",
          "miles_per_hour" : "44649.7359378383"
        },
        "miss_distance" : {
          "astronomical" : "0.3782216857",
          "lunar" : "147.1282348633",
          "kilometers" : "56581160",
          "miles" : "35157904"
        },
        "orbiting_body" : "Earth"
      } ],
      "orbital_data" : {
        "orbit_id" : "16",
        "orbit_determination_date" : "2017-06-03 06:17:54",
        "orbit_uncertainty" : "3",
        "minimum_orbit_intersection" : ".219446",
        "jupiter_tisserand_invariant" : "5.792",
        "epoch_osculation" : "2458000.5",
        "eccentricity" : ".2728202031494059",
        "semi_major_axis" : "1.033895064102236",
        "inclination" : "27.78314127573827",
        "ascending_node_longitude" : "132.5130959843882",
        "orbital_period" : "383.9839924357004",
        "perihelion_distance" : ".751827602678696",
        "perihelion_argument" : "339.4233024309346",
        "aphelion_distance" : "1.315962525525776",
        "perihelion_time" : "2458173.209097661005",
        "mean_anomaly" : "198.0784710227909",
        "mean_motion" : ".9375390825967398",
        "equinox" : "J2000"
      }
    }, {
      "links" : {
        "self" : "https://api.nasa.gov/neo/rest/v1/neo/3754379?api_key=t0TVs3DtDT2H8Oy2Zy8m2eVrNsAVKAexjcZXUckd"
      },
      "neo_reference_id" : "3754379",
      "name" : "(2016 NR)",
      "nasa_jpl_url" : "http://ssd.jpl.nasa.gov/sbdb.cgi?sstr=3754379",
      "absolute_magnitude_h" : 23.9,
      "estimated_diameter" : {
        "kilometers" : {
          "estimated_diameter_min" : 0.04411182,
          "estimated_diameter_max" : 0.0986370281
        },
        "meters" : {
          "estimated_diameter_min" : 44.1118199997,
          "estimated_diameter_max" : 98.6370281305
        },
        "miles" : {
          "estimated_diameter_min" : 0.0274098057,
          "estimated_diameter_max" : 0.0612901888
        },
        "feet" : {
          "estimated_diameter_min" : 144.7238235278,
          "estimated_diameter_max" : 323.6123073718
        }
      },
      "is_potentially_hazardous_asteroid" : false,
      "close_approach_data" : [ {
        "close_approach_date" : "1997-03-15",
        "epoch_date_close_approach" : 858412800000,
        "relative_velocity" : {
          "kilometers_per_second" : "12.6199504205",
          "kilometers_per_hour" : "45431.8215138976",
          "miles_per_hour" : "28229.5670956771"
        },
        "miss_distance" : {
          "astronomical" : "0.3837293088",
          "lunar" : "149.2707061768",
          "kilometers" : "57405088",
          "miles" : "35669868"
        },
        "orbiting_body" : "Earth"
      } ],
      "orbital_data" : {
        "orbit_id" : "10",
        "orbit_determination_date" : "2017-04-06 08:25:13",
        "orbit_uncertainty" : "5",
        "minimum_orbit_intersection" : ".0374399",
        "jupiter_tisserand_invariant" : "6.665",
        "epoch_osculation" : "2458000.5",
        "eccentricity" : ".3353665037476037",
        "semi_major_axis" : ".8828491961467082",
        "inclination" : "6.509020010479984",
        "ascending_node_longitude" : "249.5755155843497",
        "orbital_period" : "302.9899446268817",
        "perihelion_distance" : ".5867711478986043",
        "perihelion_argument" : "247.2206887995225",
        "aphelion_distance" : "1.178927244394812",
        "perihelion_time" : "2458080.280890799805",
        "mean_anomaly" : "265.2076770293528",
        "mean_motion" : "1.188158242159896",
        "equinox" : "J2000"
      }
    }, {
      "links" : {
        "self" : "https://api.nasa.gov/neo/rest/v1/neo/3773594?api_key=t0TVs3DtDT2H8Oy2Zy8m2eVrNsAVKAexjcZXUckd"
      },
      "neo_reference_id" : "3773594",
      "name" : "(2017 FN127)",
      "nasa_jpl_url" : "http://ssd.jpl.nasa.gov/sbdb.cgi?sstr=3773594",
      "absolute_magnitude_h" : 25.793,
      "estimated_diameter" : {
        "kilometers" : {
          "estimated_diameter_min" : 0.0184482416,
          "estimated_diameter_max" : 0.0412515222
        },
        "meters" : {
          "estimated_diameter_min" : 18.4482415599,
          "estimated_diameter_max" : 41.2515221932
        },
        "miles" : {
          "estimated_diameter_min" : 0.0114632023,
          "estimated_diameter_max" : 0.0256324996
        },
        "feet" : {
          "estimated_diameter_min" : 60.5257288393,
          "estimated_diameter_max" : 135.3396440724
        }
      },
      "is_potentially_hazardous_asteroid" : false,
      "close_approach_data" : [ {
        "close_approach_date" : "1997-03-15",
        "epoch_date_close_approach" : 858412800000,
        "relative_velocity" : {
          "kilometers_per_second" : "14.2488883517",
          "kilometers_per_hour" : "51295.9980661247",
          "miles_per_hour" : "31873.3383539206"
        },
        "miss_distance" : {
          "astronomical" : "0.1859998428",
          "lunar" : "72.3539352417",
          "kilometers" : "27825180",
          "miles" : "17289766"
        },
        "orbiting_body" : "Earth"
      } ],
      "orbital_data" : {
        "orbit_id" : "2",
        "orbit_determination_date" : "2017-04-06 08:18:56",
        "orbit_uncertainty" : "6",
        "minimum_orbit_intersection" : ".0227205",
        "jupiter_tisserand_invariant" : "6.354",
        "epoch_osculation" : "2458000.5",
        "eccentricity" : ".2821555233074357",
        "semi_major_axis" : ".9373489228351275",
        "inclination" : "9.543367993332907",
        "ascending_node_longitude" : "176.9654350856323",
        "orbital_period" : "331.4746752842175",
        "perihelion_distance" : ".672870746990921",
        "perihelion_argument" : "233.4147843379444",
        "aphelion_distance" : "1.201827098679334",
        "perihelion_time" : "2458071.689784807921",
        "mean_anomaly" : "282.6839199438779",
        "mean_motion" : "1.08605581917027",
        "equinox" : "J2000"
      }
    } ]
  }
}